[{"OBJECT_NAME":"STARLINK-30991","OBJECT_ID":"2023-186M","EPOCH":"2026-03-09T22:00:01.999584","MEAN_MOTION":15.27552721,"ECCENTRICITY":0.00022618,"INCLINATION":43.0044,"RA_OF_ASC_NODE":61.9791,"ARG_OF_PERICENTER":269.0329,"MEAN_ANOMALY":152.6402,"EPHEMERIS_TYPE":0,"CLASSIFICATION_TYPE":"U","NORAD_CAT_ID":58484,"ELEMENT_SET_NO":999,"REV_AT_EPOCH":577,"BSTAR":0.0016858678,"MEAN_MOTION_DOT":0.00046384,"MEAN_MOTION_DDOT":0},{"OBJECT_NAME":"FLOCK 4G-6","OBJECT_ID":"2025-009BD","EPOCH":"2026-03-09T17:03:16.973568","MEAN_MOTION":15.27432125,"ECCENTRICITY":0.00023795,"INCLINATION":97.398,"RA_OF_ASC_NODE":150.7943,"ARG_OF_PERICENTER":348.2637,"MEAN_ANOMALY":11.8546,"EPHEMERIS_TYPE":0,"CLASSIFICATION_TYPE":"U","NORAD_CAT_ID":62660,"ELEMENT_SET_NO":999,"REV_AT_EPOCH":12130,"BSTAR":0.00045909501,"MEAN_MOTION_DOT":0.00012261,"MEAN_MOTION_DDOT":0}]
